GLOBALSTAR M094 [+]     
1 39074U 13005C   23314.32360167 -.00000063  00000+0  22556-3 0  9995
2 39074  51.9935 162.8554 0001209  83.9118 276.1887 12.62269720498513
GLOBALSTAR M096 [+]     
1 39075U 13005D   23314.41599818 -.00000080  00000+0  13384-3 0  9991
2 39075  52.0066 210.6319 0001231  67.3555 292.7442 12.62265977497440
GLOBALSTAR M078 [+]     
1 39076U 13005E   23314.23106282 -.00000092  00000+0  65493-4 0  9993
2 39076  51.9878 296.4986 0000993 350.9963   9.0885 12.62263033496046
GLOBALSTAR M095 [+]     
1 39077U 13005F   23314.33679570 -.00000095  00000+0  51429-4 0  9997
2 39077  51.9806 293.6649 0001018  23.7606 336.3307 12.62270550495913
GLOBALSTAR M087 [+]     
1 52888U 22064A   23314.57175362 -.00000094  00000+0  65947-4 0  9992
2 52888  51.9759 254.1592 0009361 163.0920 197.0294 13.37557539 68135
